{"fetched_at":"2026-07-19T07:05:17.915Z","source":"https://celestrak.org/NORAD/elements/gp.php?NAME=JILIN&FORMAT=JSON","constellation":"jilin-1-gaofen","records":[{"OBJECT_NAME":"JILIN-1 GAOFEN 3A","OBJECT_ID":"2019-032C","EPOCH":"2026-07-18T19:41:02.236992","CLASSIFICATION_TYPE":"U","MEAN_MOTION":15.33237089,"ECCENTRICITY":0.0004921,"INCLINATION":44.9735,"RA_OF_ASC_NODE":182.7526,"ARG_OF_PERICENTER":132.1615,"MEAN_ANOMALY":227.9688,"EPHEMERIS_TYPE":0,"NORAD_CAT_ID":44312,"ELEMENT_SET_NO":999,"REV_AT_EPOCH":39269,"BSTAR":0.0002025,"MEAN_MOTION_DOT":0.00006323,"MEAN_MOTION_DDOT":0},{"OBJECT_NAME":"JILIN-1 GAOFEN 2A","OBJECT_ID":"2019-075A","EPOCH":"2026-07-18T20:23:36.079296","CLASSIFICATION_TYPE":"U","MEAN_MOTION":15.40069258,"ECCENTRICITY":0.0004829,"INCLINATION":97.4957,"RA_OF_ASC_NODE":284.3969,"ARG_OF_PERICENTER":340.149,"MEAN_ANOMALY":19.9567,"EPHEMERIS_TYPE":0,"NORAD_CAT_ID":44777,"ELEMENT_SET_NO":999,"REV_AT_EPOCH":36975,"BSTAR":0.00018468,"MEAN_MOTION_DOT":0.000073,"MEAN_MOTION_DDOT":0},{"OBJECT_NAME":"JILIN-1 GAOFEN 2B","OBJECT_ID":"2019-086A","EPOCH":"2026-07-18T20:37:55.367040","CLASSIFICATION_TYPE":"U","MEAN_MOTION":15.21022315,"ECCENTRICITY":0.0013587,"INCLINATION":97.4866,"RA_OF_ASC_NODE":271.6568,"ARG_OF_PERICENTER":202.4203,"MEAN_ANOMALY":157.644,"EPHEMERIS_TYPE":0,"NORAD_CAT_ID":44836,"ELEMENT_SET_NO":999,"REV_AT_EPOCH":36530,"BSTAR":0.00013975,"MEAN_MOTION_DOT":0.00003037,"MEAN_MOTION_DDOT":0},{"OBJECT_NAME":"JILIN-1 GAOFEN 3E","OBJECT_ID":"2020-065D","EPOCH":"2026-07-18T20:37:03.100224","CLASSIFICATION_TYPE":"U","MEAN_MOTION":15.67581443,"ECCENTRICITY":0.000962,"INCLINATION":97.22,"RA_OF_ASC_NODE":253.2873,"ARG_OF_PERICENTER":60.1554,"MEAN_ANOMALY":300.0662,"EPHEMERIS_TYPE":0,"NORAD_CAT_ID":46457,"ELEMENT_SET_NO":999,"REV_AT_EPOCH":32471,"BSTAR":0.00043108,"MEAN_MOTION_DOT":0.00047036,"MEAN_MOTION_DDOT":0},{"OBJECT_NAME":"JILIN-1 GAOFEN 3F","OBJECT_ID":"2020-065E","EPOCH":"2026-07-18T19:37:07.169376","CLASSIFICATION_TYPE":"U","MEAN_MOTION":15.64230572,"ECCENTRICITY":0.0010919,"INCLINATION":97.2159,"RA_OF_ASC_NODE":250.4149,"ARG_OF_PERICENTER":45.5208,"MEAN_ANOMALY":314.6942,"EPHEMERIS_TYPE":0,"NORAD_CAT_ID":46458,"ELEMENT_SET_NO":999,"REV_AT_EPOCH":32464,"BSTAR":0.00041481,"MEAN_MOTION_DOT":0.00039577,"MEAN_MOTION_DDOT":0},{"OBJECT_NAME":"JILIN-1 GAOFEN 3G","OBJECT_ID":"2020-065F","EPOCH":"2026-07-18T13:07:12.325152","CLASSIFICATION_TYPE":"U","MEAN_MOTION":15.77499339,"ECCENTRICITY":0.0005849,"INCLINATION":97.2211,"RA_OF_ASC_NODE":257.5312,"ARG_OF_PERICENTER":257.9833,"MEAN_ANOMALY":102.0778,"EPHEMERIS_TYPE":0,"NORAD_CAT_ID":46459,"ELEMENT_SET_NO":999,"REV_AT_EPOCH":32487,"BSTAR":0.00050139,"MEAN_MOTION_DOT":0.00083486,"MEAN_MOTION_DDOT":0},{"OBJECT_NAME":"JILIN-1 GAOFEN 3H","OBJECT_ID":"2020-065G","EPOCH":"2026-07-18T20:30:48.402432","CLASSIFICATION_TYPE":"U","MEAN_MOTION":15.72742102,"ECCENTRICITY":0.0006941,"INCLINATION":97.216,"RA_OF_ASC_NODE":253.9579,"ARG_OF_PERICENTER":190.7274,"MEAN_ANOMALY":169.3843,"EPHEMERIS_TYPE":0,"NORAD_CAT_ID":46460,"ELEMENT_SET_NO":999,"REV_AT_EPOCH":32485,"BSTAR":0.00046896,"MEAN_MOTION_DOT":0.00063422,"MEAN_MOTION_DDOT":0},{"OBJECT_NAME":"JILIN-1 GAOFEN 2D","OBJECT_ID":"2021-086A","EPOCH":"2026-07-18T19:39:51.448608","CLASSIFICATION_TYPE":"U","MEAN_MOTION":15.10881495,"ECCENTRICITY":0.0033754,"INCLINATION":97.6513,"RA_OF_ASC_NODE":322.5244,"ARG_OF_PERICENTER":38.6021,"MEAN_ANOMALY":321.7612,"EPHEMERIS_TYPE":0,"NORAD_CAT_ID":49256,"ELEMENT_SET_NO":999,"REV_AT_EPOCH":26549,"BSTAR":0.0001463,"MEAN_MOTION_DOT":0.000024,"MEAN_MOTION_DDOT":0},{"OBJECT_NAME":"JILIN-1 GAOFEN 2F","OBJECT_ID":"2021-097A","EPOCH":"2026-07-18T19:43:34.228416","CLASSIFICATION_TYPE":"U","MEAN_MOTION":15.07964314,"ECCENTRICITY":0.0019967,"INCLINATION":97.6735,"RA_OF_ASC_NODE":325.953,"ARG_OF_PERICENTER":118.1765,"MEAN_ANOMALY":242.1482,"EPHEMERIS_TYPE":0,"NORAD_CAT_ID":49338,"ELEMENT_SET_NO":999,"REV_AT_EPOCH":26108,"BSTAR":0.00015062,"MEAN_MOTION_DOT":0.0000226,"MEAN_MOTION_DDOT":0},{"OBJECT_NAME":"JILIN-1 GAOFEN 3D27","OBJECT_ID":"2022-048B","EPOCH":"2026-07-18T19:56:23.280000","CLASSIFICATION_TYPE":"U","MEAN_MOTION":15.84024233,"ECCENTRICITY":0.000567,"INCLINATION":97.5732,"RA_OF_ASC_NODE":316.8517,"ARG_OF_PERICENTER":236.6386,"MEAN_ANOMALY":123.4341,"EPHEMERIS_TYPE":0,"NORAD_CAT_ID":52444,"ELEMENT_SET_NO":999,"REV_AT_EPOCH":23447,"BSTAR":0.00058505,"MEAN_MOTION_DOT":0.00132011,"MEAN_MOTION_DDOT":0},{"OBJECT_NAME":"JILIN-1 GAOFEN 3D28","OBJECT_ID":"2022-048C","EPOCH":"2026-07-18T19:30:03.392928","CLASSIFICATION_TYPE":"U","MEAN_MOTION":15.89421577,"ECCENTRICITY":0.0005434,"INCLINATION":97.5673,"RA_OF_ASC_NODE":317.1593,"ARG_OF_PERICENTER":238.8205,"MEAN_ANOMALY":121.2535,"EPHEMERIS_TYPE":0,"NORAD_CAT_ID":52445,"ELEMENT_SET_NO":999,"REV_AT_EPOCH":23453,"BSTAR":0.00065108,"MEAN_MOTION_DOT":0.00187602,"MEAN_MOTION_DDOT":0.000014864},{"OBJECT_NAME":"JILIN-1 GAOFEN 3D29","OBJECT_ID":"2022-048D","EPOCH":"2026-07-18T19:33:59.400576","CLASSIFICATION_TYPE":"U","MEAN_MOTION":15.84243014,"ECCENTRICITY":0.0004625,"INCLINATION":97.5736,"RA_OF_ASC_NODE":317.2009,"ARG_OF_PERICENTER":222.9619,"MEAN_ANOMALY":137.129,"EPHEMERIS_TYPE":0,"NORAD_CAT_ID":52446,"ELEMENT_SET_NO":999,"REV_AT_EPOCH":23449,"BSTAR":0.0005973,"MEAN_MOTION_DOT":0.00136194,"MEAN_MOTION_DDOT":0},{"OBJECT_NAME":"JILIN-1 GAOFEN 3D31","OBJECT_ID":"2022-048F","EPOCH":"2026-07-18T19:38:20.552352","CLASSIFICATION_TYPE":"U","MEAN_MOTION":15.9596252,"ECCENTRICITY":0.0006359,"INCLINATION":97.573,"RA_OF_ASC_NODE":318.6182,"ARG_OF_PERICENTER":242.2407,"MEAN_ANOMALY":117.8224,"EPHEMERIS_TYPE":0,"NORAD_CAT_ID":52448,"ELEMENT_SET_NO":999,"REV_AT_EPOCH":23460,"BSTAR":0.00069671,"MEAN_MOTION_DOT":0.00282373,"MEAN_MOTION_DDOT":0.000033631},{"OBJECT_NAME":"JILIN-1 GAOFEN 03D09","OBJECT_ID":"2022-098B","EPOCH":"2026-07-18T20:27:09.091584","CLASSIFICATION_TYPE":"U","MEAN_MOTION":15.70656479,"ECCENTRICITY":0.0003625,"INCLINATION":97.5637,"RA_OF_ASC_NODE":332.005,"ARG_OF_PERICENTER":221.4445,"MEAN_ANOMALY":138.6543,"EPHEMERIS_TYPE":0,"NORAD_CAT_ID":53445,"ELEMENT_SET_NO":999,"REV_AT_EPOCH":21959,"BSTAR":0.00046844,"MEAN_MOTION_DOT":0.00057946,"MEAN_MOTION_DDOT":0},{"OBJECT_NAME":"JILIN-1 GAOFEN 03D43","OBJECT_ID":"2022-098E","EPOCH":"2026-07-18T19:39:53.428032","CLASSIFICATION_TYPE":"U","MEAN_MOTION":15.74501397,"ECCENTRICITY":0.0003856,"INCLINATION":97.5619,"RA_OF_ASC_NODE":333.1517,"ARG_OF_PERICENTER":218.2013,"MEAN_ANOMALY":141.8978,"EPHEMERIS_TYPE":0,"NORAD_CAT_ID":53448,"ELEMENT_SET_NO":999,"REV_AT_EPOCH":21966,"BSTAR":0.00047124,"MEAN_MOTION_DOT":0.00068677,"MEAN_MOTION_DDOT":0},{"OBJECT_NAME":"JILIN-1 GAOFEN 03D08","OBJECT_ID":"2022-155A","EPOCH":"2026-07-18T20:28:55.450848","CLASSIFICATION_TYPE":"U","MEAN_MOTION":15.67866107,"ECCENTRICITY":0.0004487,"INCLINATION":97.6247,"RA_OF_ASC_NODE":347.8748,"ARG_OF_PERICENTER":215.4444,"MEAN_ANOMALY":144.6518,"EPHEMERIS_TYPE":0,"NORAD_CAT_ID":54251,"ELEMENT_SET_NO":999,"REV_AT_EPOCH":20477,"BSTAR":0.00036734,"MEAN_MOTION_DOT":0.00040414,"MEAN_MOTION_DDOT":0}]}
