JILIN-1 GAOFEN 3A       
1 44312U 19032C   26199.82016478  .00006323  00000+0  20250-3 0  9997
2 44312  44.9735 182.7526 0004921 132.1615 227.9688 15.33237089392696
JILIN-1 GAOFEN 2A       
1 44777U 19075A   26199.84972314  .00007300  00000+0  18468-3 0  9995
2 44777  97.4957 284.3969 0004829 340.1490  19.9567 15.40069258369754
JILIN-1 GAOFEN 2B       
1 44836U 19086A   26199.85966860  .00003037  00000+0  13975-3 0  9994
2 44836  97.4866 271.6568 0013587 202.4203 157.6440 15.21022315365305
JILIN-1 GAOFEN 3E       
1 46457U 20065D   26199.85906366  .00047036  00000+0  43108-3 0  9997
2 46457  97.2200 253.2873 0009620  60.1554 300.0662 15.67581443324714
JILIN-1 GAOFEN 3F       
1 46458U 20065E   26199.81744409  .00039577  00000+0  41481-3 0  9995
2 46458  97.2159 250.4149 0010919  45.5208 314.6942 15.64230572324644
JILIN-1 GAOFEN 3G       
1 46459U 20065F   26199.54667043  .00083486  00000+0  50139-3 0  9992
2 46459  97.2211 257.5312 0005849 257.9833 102.0778 15.77499339324876
JILIN-1 GAOFEN 3H       
1 46460U 20065G   26199.85472688  .00063422  00000+0  46896-3 0  9990
2 46460  97.2160 253.9579 0006941 190.7274 169.3843 15.72742102324854
JILIN-1 GAOFEN 2D       
1 49256U 21086A   26199.81934547  .00002400  00000+0  14630-3 0  9993
2 49256  97.6513 322.5244 0033754  38.6021 321.7612 15.10881495265493
JILIN-1 GAOFEN 2F       
1 49338U 21097A   26199.82192394  .00002260  00000+0  15062-3 0  9997
2 49338  97.6735 325.9530 0019967 118.1765 242.1482 15.07964314261084
JILIN-1 GAOFEN 3D27     
1 52444U 22048B   26199.83082500  .00132011  00000+0  58505-3 0  9991
2 52444  97.5732 316.8517 0005670 236.6386 123.4341 15.84024233234477
JILIN-1 GAOFEN 3D28     
1 52445U 22048C   26199.81253927  .00187602  14864-4  65108-3 0  9994
2 52445  97.5673 317.1593 0005434 238.8205 121.2535 15.89421577234537
JILIN-1 GAOFEN 3D29     
1 52446U 22048D   26199.81527084  .00136194  00000+0  59730-3 0  9999
2 52446  97.5736 317.2009 0004625 222.9619 137.1290 15.84243014234497
JILIN-1 GAOFEN 3D31     
1 52448U 22048F   26199.81829343  .00282373  33631-4  69671-3 0  9991
2 52448  97.5730 318.6182 0006359 242.2407 117.8224 15.95962520234603
JILIN-1 GAOFEN 03D09    
1 53445U 22098B   26199.85218856  .00057946  00000+0  46844-3 0  9991
2 53445  97.5637 332.0050 0003625 221.4445 138.6543 15.70656479219597
JILIN-1 GAOFEN 03D43    
1 53448U 22098E   26199.81936838  .00068677  00000+0  47124-3 0  9992
2 53448  97.5619 333.1517 0003856 218.2013 141.8978 15.74501397219669
JILIN-1 GAOFEN 03D08    
1 54251U 22155A   26199.85341957  .00040414  00000+0  36734-3 0  9999
2 54251  97.6247 347.8748 0004487 215.4444 144.6518 15.67866107204778
